NORAD_CAT_ID,OBJECT_NAME,OBJECT_TYPE,EPOCH,MEAN_MOTION,ECCENTRICITY,INCLINATION,RA_OF_ASC_NODE,ARG_OF_PERICENTER,MEAN_ANOMALY,BSTAR,MEAN_MOTION_DOT,MEAN_MOTION_DDOT,TLE_LINE0,TLE_LINE1,TLE_LINE2,SEMIMAJOR_AXIS,PERIOD,APOGEE,PERIGEE,DECAYED
52114.0,STARLINK-3737,PAYLOAD,2022-05-24 14:16:03,15.38828118,0.0001786,53.2134,179.0741,54.6308,305.4864,-0.0099341,-0.00369375,0.0,0 STARLINK-3737,1 52114U 22029AC  22144.59448250 -.00369375  00000-0 -99341-2 0  9991,2 52114  53.2134 179.0741 0001786  54.6308 305.4864 15.38828118 11658,6827.7109999999975,93.578,450.795,448.356,0.0
52114.0,STARLINK-3737,PAYLOAD,2022-05-24 22:00:00,15.37784993,0.0001571999999999,53.2174,177.5514,39.0481,305.9767,-0.020552,-0.00715563,0.0,0 STARLINK-3737,1 52114U 22029AC  22144.91667824 -.00715563  00000-0 -20552-1 0  9998,2 52114  53.2174 177.5514 0001572  39.0481 305.9767 15.37784993  1304,6830.7980000000025,93.641,453.737,451.589,0.0
52114.0,STARLINK-3737,PAYLOAD,2022-05-25 06:00:00,15.37277903,0.000169,53.2176,175.9882,36.1232,354.9661,-0.021045,-0.00720331,0.0,0 STARLINK-3737,1 52114U 22029AC  22145.25001157 -.00720331  00000-0 -21045-1 0  9994,2 52114  53.2176 175.9882 0001690  36.1232 354.9661 15.37277903 11765,6832.3,93.672,455.32,453.01,0.0
52114.0,STARLINK-3737,PAYLOAD,2022-05-25 14:00:01,15.36765901,0.000154,53.2172,174.4261,41.3831,35.1594,-0.021264,-0.0071612,0.0,0 STARLINK-3737,1 52114U 22029AC  22145.58334491 -.00716120  00000-0 -21264-1 0  9994,2 52114  53.2172 174.4261 0001540  41.3831  35.1594 15.36765901  1304,6833.816999999999,93.703,456.735,454.63,0.0
52114.0,STARLINK-3737,PAYLOAD,2022-05-25 22:00:00,15.36255509,0.0001808,53.2173,172.8624,34.8091,86.5754,-0.021619,-0.00716164,0.0,0 STARLINK-3737,1 52114U 22029AC  22145.91667824 -.00716164  00000-0 -21619-1 0  9992,2 52114  53.2173 172.8624 0001808  34.8091  86.5754 15.36255509  1308,6835.331,93.734,458.432,455.96,0.0
52114.0,STARLINK-3737,PAYLOAD,2022-05-26 05:16:50,15.36765778,0.0003058999999999,53.2126,171.4497,347.7641,12.3289,-0.0089872999999999,-0.00314779,0.0,0 STARLINK-3737,1 52114U 22029AC  22146.22002929 -.00314779  00000-0 -89873-2 0  9999,2 52114  53.2126 171.4497 0003059 347.7641  12.3289 15.36765778 11918,6833.818,93.703,457.773,453.592,0.0
52114.0,STARLINK-3737,PAYLOAD,2022-05-26 12:00:00,15.35360787,0.000158,53.2174,170.1342,45.1637,63.2168,-0.022131,-0.00712516,0.0,0 STARLINK-3737,1 52114U 22029AC  22146.50001157 -.00712516  00000-0 -22131-1 0  9996,2 52114  53.2174 170.1342 0001580  45.1637  63.2168 15.35360787 11952,6837.986,93.789,460.931,458.771,0.0
52114.0,STARLINK-3737,PAYLOAD,2022-05-26 13:05:30,15.36167198,0.0001105,53.2127,169.9291,44.7468,315.3625,-0.010245,-0.00350181,0.0,0 STARLINK-3737,1 52114U 22029AC  22146.54549687 -.00350181  00000-0 -10245-1 0  9994,2 52114  53.2127 169.9291 0001105  44.7468 315.3625 15.36167198 11950,6835.593000000003,93.74,458.213,456.702,0.0
52114.0,STARLINK-3737,PAYLOAD,2022-05-26 22:00:00,15.34725386,0.0001719,53.2173,168.18400000000003,41.5456,210.6838,-0.022682,-0.00715301,0.0,0 STARLINK-3737,1 52114U 22029AC  22146.91667824 -.00715301  00000-0 -22682-1 0  9996,2 52114  53.2173 168.1840 0001719  41.5456 210.6838 15.34725386  1303,6839.873000000001,93.828,462.914,460.56300000000016,0.0
52114.0,STARLINK-3737,PAYLOAD,2022-05-27 01:35:33,15.35514699,0.0002216,53.21,167.4928,109.4524,250.6719,-0.0091874,-0.00309245,0.0,0 STARLINK-3737,1 52114U 22029AC  22147.06636574 -.00309245  00000-0 -91874-2 0  9997,2 52114  53.2100 167.4928 0002216 109.4524 250.6719 15.35514699 12044,6837.529,93.78,460.909,457.879,0.0
52114.0,STARLINK-3737,PAYLOAD,2022-05-27 14:00:01,15.33707856,0.000144,53.2172,165.0731,48.021,288.3722,-0.023554,-0.00718723,0.0,0 STARLINK-3737,1 52114U 22029AC  22147.58334491 -.00718723  00000-0 -23554-1 0  9991,2 52114  53.2172 165.0731 0001440  48.0210 288.3722 15.33707856 12125,6842.898,93.89,465.749,463.778,0.0
52114.0,STARLINK-3737,PAYLOAD,2022-05-27 22:00:01,15.33194729,0.0001618,53.2173,163.5167,36.5567,341.0667,-0.023789,-0.00714517,0.0,0 STARLINK-3737,1 52114U 22029AC  22147.91668981 -.00714517  00000-0 -23789-1 0  9999,2 52114  53.2173 163.5167 0001618  36.5567 341.0667 15.33194729  1308,6844.425,93.922,467.397,465.182,0.0
52114.0,STARLINK-3737,PAYLOAD,2022-05-28 14:00:01,15.32176326,0.0001686999999999,53.2172,160.41299999999995,38.4425,59.6044,-0.024625,-0.00716063,0.0,0 STARLINK-3737,1 52114U 22029AC  22148.58334491 -.00716063  00000-0 -24625-1 0  9997,2 52114  53.2172 160.4130 0001687  38.4425  59.6044 15.32176326  1306,6847.456999999999,93.984,470.478,468.167,0.0
52114.0,STARLINK-3737,PAYLOAD,2022-05-28 22:00:00,15.31667195,0.0001841,53.2172,158.8603,36.2948,101.0784,-0.025118,-0.007186,0.0,0 STARLINK-3737,1 52114U 22029AC  22148.91667824 -.00718600  00000-0 -25118-1 0  9990,2 52114  53.2172 158.8603 0001841  36.2948 101.0784 15.31667195 12325,6848.975,94.015,472.101,469.579,0.0
52114.0,STARLINK-3737,PAYLOAD,2022-05-29 14:00:01,15.30647775,0.0001668,53.2171,155.7636,47.0854,167.0991,-0.025946,-0.00718903,0.0,0 STARLINK-3737,1 52114U 22029AC  22149.58334491 -.00718903  00000-0 -25946-1 0  9990,2 52114  53.2171 155.7636 0001668  47.0854 167.0991 15.30647775  1308,6852.015,94.078,475.023,472.73800000000006,0.0
52114.0,STARLINK-3737,PAYLOAD,2022-05-29 22:00:00,15.3013624,0.0001703,53.2172,154.2144,44.9576,206.7157,-0.02627,-0.0071656,0.0,0 STARLINK-3737,1 52114U 22029AC  22149.91667824 -.00716560  00000-0 -26270-1 0  9994,2 52114  53.2172 154.2144 0001703  44.9576 206.7157 15.30136240  1309,6853.542,94.109,476.575,474.24,0.0
52114.0,STARLINK-3737,PAYLOAD,2022-05-30 04:00:00,15.29753383,0.000199,53.2175,153.0561,36.2839,153.1017,-0.026543,-0.00715563,0.0,0 STARLINK-3737,1 52114U 22029AC  22150.16667824 -.00715563  00000-0 -26543-1 0  9998,2 52114  53.2175 153.0561 0001990  36.2839 153.1017 15.29753383 12512,6854.686,94.133,477.915,475.187,0.0
52114.0,STARLINK-3737,PAYLOAD,2022-05-30 12:35:11,15.30239772,0.0001468,53.2125,151.4081,35.517,324.5929,-0.01142,-0.00324681,0.0,0 STARLINK-3737,1 52114U 22029AC  22150.52443318 -.00324681  00000-0 -11420-1 0  9993,2 52114  53.2125 151.4081 0001468  35.5170 324.5929 15.30239772 12571,6853.233,94.103,476.104,474.092,0.0
52114.0,STARLINK-3737,PAYLOAD,2022-05-30 14:00:01,15.29118854,0.0001547,53.2172,151.125,45.2277,279.5793,-0.027273,-0.00728833,0.0,0 STARLINK-3737,1 52114U 22029AC  22150.58334491 -.00728833  00000-0 -27273-1 0  9990,2 52114  53.2172 151.1250 0001547  45.2277 279.5793 15.29118854  1304,6856.581999999999,94.172,479.508,477.386,0.0
52114.0,STARLINK-3737,PAYLOAD,2022-05-30 20:00:01,15.28732355,0.0001703,53.2174,149.9657,42.9529,218.6503,-0.027301,-0.00713243,0.0,0 STARLINK-3737,1 52114U 22029AC  22150.83334491 -.00713243  00000-0 -27301-1 0  9999,2 52114  53.2174 149.9657 0001703  42.9529 218.6503 15.28732355 12616,6857.738,94.196,480.771,478.435,0.0
52114.0,STARLINK-3737,PAYLOAD,2022-05-30 22:00:00,15.28604684,0.0001615,53.2173,149.5798,39.2332,321.225,-0.027433,-0.00713815,0.0,0 STARLINK-3737,1 52114U 22029AC  22150.91667824 -.00713815  00000-0 -27433-1 0  9998,2 52114  53.2173 149.5798 0001615  39.2332 321.2250 15.28604684  1318,6858.12,94.204,481.092,478.877,0.0
52114.0,STARLINK-3737,PAYLOAD,2022-05-31 06:00:02,15.28097701,0.0001961,53.2174,148.039,30.4757,5.0799,-0.028057,-0.00726761,0.0,0 STARLINK-3737,1 52114U 22029AC  22151.25002315 -.00726761  00000-0 -28057-1 0  9991,2 52114  53.2174 148.0390 0001961  30.4757   5.0799 15.28097701  1309,6859.636,94.235,482.847,480.156,0.0
52114.0,STARLINK-3737,PAYLOAD,2022-05-31 22:00:00,15.27076513,0.0001797,53.2174,144.9557,37.02,66.7068,-0.028865,-0.00724789,0.0,0 STARLINK-3737,1 52114U 22029AC  22151.91667824 -.00724789  00000-0 -28865-1 0  9991,2 52114  53.2174 144.9557 0001797  37.0200  66.7068 15.27076513 12786,6862.694,94.298,485.792,483.326,0.0
52114.0,STARLINK-3737,PAYLOAD,2022-06-01 11:41:52,15.27517222,0.0001864,53.2118,142.3366,47.4256,312.6901,-0.0087222,-0.00231006,0.0,0 STARLINK-3737,1 52114U 22029AC  22152.48740927 -.00231006  00000-0 -87222-2 0  9998,2 52114  53.2118 142.3366 0001864  47.4256 312.6901 15.27517222 12871,6861.374,94.271,484.518,481.96,0.0
52114.0,STARLINK-3737,PAYLOAD,2022-06-01 20:00:01,15.25673483,0.0001869,53.2173,140.7267,33.3822,70.1635,-0.030074,-0.00723705,0.0,0 STARLINK-3737,1 52114U 22029AC  22152.83334491 -.00723705  00000-0 -30074-1 0  9996,2 52114  53.2173 140.7267 0001869  33.3822  70.1635 15.25673483 12928,6866.901,94.385,490.049,487.482,0.0
52114.0,STARLINK-3737,PAYLOAD,2022-06-02 16:00:16,15.25727346,0.0001999,53.2122,136.9042,47.7864,312.3305,-0.0087199,-0.002191,0.0,0 STARLINK-3737,1 52114U 22029AC  22153.66685626 -.00219100  00000-0 -87199-2 0  9997,2 52114  53.2122 136.9042 0001999  47.7864 312.3305 15.25727346 13057,6866.739000000001,94.381,489.977,487.232,0.0
52114.0,STARLINK-3737,PAYLOAD,2022-06-03 03:01:11,15.25115771,8.25e-05,53.212,134.7943,127.9481,232.1593,-0.0081893,-0.00202465,0.0,0 STARLINK-3737,1 52114U 22029AC  22154.12582926 -.00202465  00000-0 -81893-2 0  9999,2 52114  53.2120 134.7943 0000825 127.9481 232.1593 15.25115771 13123,6868.575,94.419,491.006,489.87300000000016,0.0
52114.0,STARLINK-3737,PAYLOAD,2022-06-03 12:28:09,15.24441734,0.0001961,53.2116,132.9861,28.8968,331.214,-0.0096111,-0.00231912,0.0,0 STARLINK-3737,1 52114U 22029AC  22154.51955978 -.00231912  00000-0 -96111-2 0  9991,2 52114  53.2116 132.9861 0001961  28.8968 331.2140 15.24441734 13183,6870.599,94.461,493.812,491.117,0.0
52114.0,STARLINK-3737,PAYLOAD,2022-06-03 14:02:42,15.24306087,0.0001874,53.2117,132.6852,49.279,310.8371,-0.0099068,-0.00237876,0.0,0 STARLINK-3737,1 52114U 22029AC  22154.58521478 -.00237876  00000-0 -99068-2 0  9991,2 52114  53.2117 132.6852 0001874  49.2790 310.8371 15.24306087 13195,6871.007,94.469,494.16,491.584,0.0
